start=new Date('2022-12-26T00:00:00.000Z').valueOf();
sats=[{"CENTER_NAME":"EARTH","OBJECT_TYPE":"PAYLOAD","FILE":"3722315","LAUNCH_DATE":"2021-01-20","SEMIMAJOR_AXIS":"6925.359","ELEMENT_SET_NO":"999","DECAY_DATE":null,"SITE":"AFETR","PERIOD":"95.592","OBJECT_ID":"2021-005K","EPOCH":"2022-12-25T19:37:33.197376","NORAD_CAT_ID":"47358","TLE_LINE2":"2 47358  53.0518 243.3800 0001534  82.0910 278.0253 15.06396725107137","REV_AT_EPOCH":"10713","MEAN_ANOMALY":"278.0253","EPHEMERIS_TYPE":"0","ARG_OF_PERICENTER":"82.0910","OBJECT_NAME":"STARLINK-2055","TIME_SYSTEM":"UTC","APOAPSIS":"548.286","BSTAR":"0.00004482100000","TLE_LINE1":"1 47358U 21005K   22359.81774534  .00000386  00000-0  44821-4 0  9995","MEAN_MOTION":"15.06396725","MEAN_MOTION_DOT":"0.00000386","PERIAPSIS":"546.161","RCS_SIZE":"LARGE","INCLINATION":"53.0518","CLASSIFICATION_TYPE":"U","MEAN_ELEMENT_THEORY":"SGP4","MEAN_MOTION_DDOT":"0.0000000000000","ECCENTRICITY":"0.00015340","REF_FRAME":"TEME","COUNTRY_CODE":"US","RA_OF_ASC_NODE":"243.3800","GP_ID":"221449857"},{"REV_AT_EPOCH":"10744","TLE_LINE2":"2 47359  53.0548 268.3304 0001567  68.0149 292.1007 15.06392655107447","NORAD_CAT_ID":"47359","EPOCH":"2022-12-25T19:54:10.061568","DECAY_DATE":null,"SITE":"AFETR","PERIOD":"95.593","OBJECT_ID":"2021-005L","ELEMENT_SET_NO":"999","LAUNCH_DATE":"2021-01-20","SEMIMAJOR_AXIS":"6925.371","FILE":"3722251","OBJECT_TYPE":"PAYLOAD","CENTER_NAME":"EARTH","TLE_LINE1":"1 47359U 21005L   22359.82928312 -.00002155  00000-0 -12582-3 0  9998","APOAPSIS":"548.321","BSTAR":"-0.00012582000000","TIME_SYSTEM":"UTC","OBJECT_NAME":"STARLINK-2069","ARG_OF_PERICENTER":"68.0149","EPHEMERIS_TYPE":"0","MEAN_ANOMALY":"292.1007","CLASSIFICATION_TYPE":"U","RCS_SIZE":"LARGE","INCLINATION":"53.0548","PERIAPSIS":"546.151","MEAN_MOTION_DOT":"-0.00002155","MEAN_MOTION":"15.06392655","GP_ID":"221427730","RA_OF_ASC_NODE":"268.3304","COUNTRY_CODE":"US","REF_FRAME":"TEME","ECCENTRICITY":"0.00015670","MEAN_MOTION_DDOT":"0.0000000000000","MEAN_ELEMENT_THEORY":"SGP4"},{"MEAN_ANOMALY":"280.5097","EPHEMERIS_TYPE":"0","ARG_OF_PERICENTER":"79.6062","OBJECT_NAME":"STARLINK-2070","TLE_LINE1":"1 47360U 21005M   22359.70304584 -.00001582  00000-0 -87318-4 0  9999","APOAPSIS":"548.271","TIME_SYSTEM":"UTC","BSTAR":"-0.00008731800000","CENTER_NAME":"EARTH","OBJECT_TYPE":"PAYLOAD","FILE":"3722315","LAUNCH_DATE":"2021-01-20","SEMIMAJOR_AXIS":"6925.360","OBJECT_ID":"2021-005M","DECAY_DATE":null,"SITE":"AFETR","PERIOD":"95.592","ELEMENT_SET_NO":"999","EPOCH":"2022-12-25T16:52:23.160576","TLE_LINE2":"2 47360  53.0534 238.9014 0001510  79.6062 280.5097 15.06396168107190","NORAD_CAT_ID":"47360","REV_AT_EPOCH":"10719","MEAN_ELEMENT_THEORY":"SGP4","MEAN_MOTION_DDOT":"0.0000000000000","ECCENTRICITY":"0.00015100","REF_FRAME":"TEME","COUNTRY_CODE":"US","RA_OF_ASC_NODE":"238.9014","GP_ID":"221451358","MEAN_MOTION":"15.06396168","MEAN_MOTION_DOT":"-0.00001582","RCS_SIZE":"LARGE","INCLINATION":"53.0534","PERIAPSIS":"546.180","CLASSIFICATION_TYPE":"U"},{"MEAN_MOTION":"15.06402215","CLASSIFICATION_TYPE":"U","RCS_SIZE":"LARGE","INCLINATION":"53.0513","PERIAPSIS":"546.252","MEAN_MOTION_DOT":"-0.00001312","REF_FRAME":"TEME","ECCENTRICITY":"0.00013790","MEAN_MOTION_DDOT":"0.0000000000000","MEAN_ELEMENT_THEORY":"SGP4","GP_ID":"221451109","RA_OF_ASC_NODE":"243.6489","COUNTRY_CODE":"US","SEMIMAJOR_AXIS":"6925.342","LAUNCH_DATE":"2021-01-20","FILE":"3722315","OBJECT_TYPE":"PAYLOAD","CENTER_NAME":"EARTH","REV_AT_EPOCH":"10712","TLE_LINE2":"2 47361  53.0513 243.6489 0001379  97.6288 262.4857 15.06402215107127","NORAD_CAT_ID":"47361","EPOCH":"2022-12-25T18:13:58.822176","DECAY_DATE":null,"SITE":"AFETR","PERIOD":"95.592","OBJECT_ID":"2021-005N","ELEMENT_SET_NO":"999","EPHEMERIS_TYPE":"0","MEAN_ANOMALY":"262.4857","TLE_LINE1":"1 47361U 21005N   22359.75970859 -.00001312  00000-0 -69226-4 0  9998","APOAPSIS":"548.162","BSTAR":"-0.00006922600000","TIME_SYSTEM":"UTC","OBJECT_NAME":"STARLINK-2071","ARG_OF_PERICENTER":"97.6288"},{"MEAN_MOTION_DDOT":"0.0000000000000","ECCENTRICITY":"0.00015390","MEAN_ELEMENT_THEORY":"SGP4","REF_FRAME":"TEME","RA_OF_ASC_NODE":"273.4474","COUNTRY_CODE":"US","GP_ID":"221450357","MEAN_MOTION":"15.06394204","PERIAPSIS":"546.166","RCS_SIZE":"LARGE","INCLINATION":"53.0533","MEAN_MOTION_DOT":"-0.00001024","CLASSIFICATION_TYPE":"U","EPHEMERIS_TYPE":"0","MEAN_ANOMALY":"287.5019","ARG_OF_PERICENTER":"72.6138","APOAPSIS":"548.297","BSTAR":"-0.00004984900000","TIME_SYSTEM":"UTC","TLE_LINE1":"1 47362U 21005P   22359.80486424 -.00001024  00000-0 -49849-4 0  9994","OBJECT_NAME":"STARLINK-2076","OBJECT_TYPE":"PAYLOAD","CENTER_NAME":"EARTH","SEMIMAJOR_AXIS":"6925.366","LAUNCH_DATE":"2021-01-20","FILE":"3722315","EPOCH":"2022-12-25T19:19:00.270336","ELEMENT_SET_NO":"999","DECAY_DATE":null,"SITE":"AFETR","PERIOD":"95.593","OBJECT_ID":"2021-005P","REV_AT_EPOCH":"10671","NORAD_CAT_ID":"47362","TLE_LINE2":"2 47362  53.0533 273.4474 0001539  72.6138 287.5019 15.06394204106710"},{"MEAN_MOTION":"15.06396273","MEAN_MOTION_DOT":"0.00000070","INCLINATION":"53.0552","RCS_SIZE":"LARGE","PERIAPSIS":"546.379","CLASSIFICATION_TYPE":"U","MEAN_ELEMENT_THEORY":"SGP4","ECCENTRICITY":"0.00012210","MEAN_MOTION_DDOT":"0.0000000000000","REF_FRAME":"TEME","COUNTRY_CODE":"US","RA_OF_ASC_NODE":"274.9015","GP_ID":"221419050","CENTER_NAME":"EARTH","OBJECT_TYPE":"PAYLOAD","FILE":"3722051","LAUNCH_DATE":"2021-01-20","SEMIMAJOR_AXIS":"6925.360","DECAY_DATE":null,"PERIOD":"95.592","SITE":"AFETR","OBJECT_ID":"2021-005Q","ELEMENT_SET_NO":"999","EPOCH":"2022-12-25T11:26:37.372416","TLE_LINE2":"2 47363  53.0552 274.9015 0001221  63.8693 296.2421 15.06396273106661","NORAD_CAT_ID":"47363","REV_AT_EPOCH":"10666","MEAN_ANOMALY":"296.2421","EPHEMERIS_TYPE":"0","ARG_OF_PERICENTER":"63.8693","OBJECT_NAME":"STARLINK-2077","TLE_LINE1":"1 47363U 21005Q   22359.47682144  .00000070  00000-0  23558-4 0  9992","APOAPSIS":"548.071","BSTAR":"0.00002355800000","TIME_SYSTEM":"UTC"},{"RA_OF_ASC_NODE":"273.6129","COUNTRY_CODE":"US","GP_ID":"221450859","MEAN_MOTION_DDOT":"0.0000000000000","ECCENTRICITY":"0.00015680","MEAN_ELEMENT_THEORY":"SGP4","REF_FRAME":"TEME","PERIAPSIS":"546.172","INCLINATION":"53.0553","RCS_SIZE":"LARGE","MEAN_MOTION_DOT":"-0.00002886","CLASSIFICATION_TYPE":"U","MEAN_MOTION":"15.06385448","ARG_OF_PERICENTER":"103.6437","BSTAR":"-0.00017499000000","APOAPSIS":"548.344","TIME_SYSTEM":"UTC","TLE_LINE1":"1 47366U 21005T   22359.76800303 -.00002886  00000-0 -17499-3 0  9991","OBJECT_NAME":"STARLINK-2081","EPHEMERIS_TYPE":"0","MEAN_ANOMALY":"256.4727","EPOCH":"2022-12-25T18:25:55.461792","ELEMENT_SET_NO":"999","SITE":"AFETR","DECAY_DATE":null,"PERIOD":"95.593","OBJECT_ID":"2021-005T","REV_AT_EPOCH":"10670","NORAD_CAT_ID":"47366","TLE_LINE2":"2 47366  53.0553 273.6129 0001568 103.6437 256.4727 15.06385448106704","OBJECT_TYPE":"PAYLOAD","CENTER_NAME":"EARTH","SEMIMAJOR_AXIS":"6925.393","LAUNCH_DATE":"2021-01-20","FILE":"3722315"},{"CLASSIFICATION_TYPE":"U","PERIAPSIS":"546.210","RCS_SIZE":"LARGE","INCLINATION":"53.0561","MEAN_MOTION_DOT":"-0.00001652","MEAN_MOTION":"15.06397413","GP_ID":"221425114","RA_OF_ASC_NODE":"274.9718","COUNTRY_CODE":"US","REF_FRAME":"TEME","ECCENTRICITY":"0.00014600","MEAN_MOTION_DDOT":"0.0000000000000","MEAN_ELEMENT_THEORY":"SGP4","REV_AT_EPOCH":"10666","NORAD_CAT_ID":"47367","TLE_LINE2":"2 47367  53.0561 274.9718 0001460  69.2457 290.8688 15.06397413106660","EPOCH":"2022-12-25T11:05:22.898976","ELEMENT_SET_NO":"999","DECAY_DATE":null,"SITE":"AFETR","PERIOD":"95.592","OBJECT_ID":"2021-005U","LAUNCH_DATE":"2021-01-20","SEMIMAJOR_AXIS":"6925.356","FILE":"3722139","OBJECT_TYPE":"PAYLOAD","CENTER_NAME":"EARTH","TIME_SYSTEM":"UTC","APOAPSIS":"548.233","BSTAR":"-0.00009206300000","TLE_LINE1":"1 47367U 21005U   22359.46207059 -.00001652  00000-0 -92063-4 0  9999","OBJECT_NAME":"STARLINK-2082","ARG_OF_PERICENTER":"69.2457","EPHEMERIS_TYPE":"0","MEAN_ANOMALY":"290.8688"},{"REV_AT_EPOCH":"10671","NORAD_CAT_ID":"47368","TLE_LINE2":"2 47368  53.0564 273.5213 0001695  75.9232 284.1945 15.06393303106716","EPOCH":"2022-12-25T18:52:28.235424","ELEMENT_SET_NO":"999","DECAY_DATE":null,"SITE":"AFETR","PERIOD":"95.593","OBJECT_ID":"2021-005V","LAUNCH_DATE":"2021-01-20","SEMIMAJOR_AXIS":"6925.369","FILE":"3722315","OBJECT_TYPE":"PAYLOAD","CENTER_NAME":"EARTH","BSTAR":"-0.00003163500000","APOAPSIS":"548.408","TIME_SYSTEM":"UTC","TLE_LINE1":"1 47368U 21005V   22359.78643791 -.00000753  00000-0 -31635-4 0  9991","OBJECT_NAME":"STARLINK-2084","ARG_OF_PERICENTER":"75.9232","EPHEMERIS_TYPE":"0","MEAN_ANOMALY":"284.1945","CLASSIFICATION_TYPE":"U","PERIAPSIS":"546.060","RCS_SIZE":"LARGE","INCLINATION":"53.0564","MEAN_MOTION_DOT":"-0.00000753","MEAN_MOTION":"15.06393303","GP_ID":"221449858","RA_OF_ASC_NODE":"273.5213","COUNTRY_CODE":"US","REF_FRAME":"TEME","MEAN_MOTION_DDOT":"0.0000000000000","ECCENTRICITY":"0.00016950","MEAN_ELEMENT_THEORY":"SGP4"},{"CLASSIFICATION_TYPE":"U","MEAN_MOTION_DOT":"0.00000254","PERIAPSIS":"546.210","INCLINATION":"53.0547","RCS_SIZE":"LARGE","MEAN_MOTION":"15.06403087","GP_ID":"221418550","COUNTRY_CODE":"US","RA_OF_ASC_NODE":"256.4579","REF_FRAME":"TEME","MEAN_ELEMENT_THEORY":"SGP4","ECCENTRICITY":"0.00014350","MEAN_MOTION_DDOT":"0.0000000000000","NORAD_CAT_ID":"47369","TLE_LINE2":"2 47369  53.0547 256.4579 0001435  68.2680 291.8461 15.06403087106895","REV_AT_EPOCH":"10689","ELEMENT_SET_NO":"999","DECAY_DATE":null,"SITE":"AFETR","PERIOD":"95.592","OBJECT_ID":"2021-005W","EPOCH":"2022-12-25T03:03:41.112288","FILE":"3722051","LAUNCH_DATE":"2021-01-20","SEMIMAJOR_AXIS":"6925.339","CENTER_NAME":"EARTH","OBJECT_TYPE":"PAYLOAD","OBJECT_NAME":"STARLINK-2085","TIME_SYSTEM":"UTC","APOAPSIS":"548.198","BSTAR":"0.00003592100000","TLE_LINE1":"1 47369U 21005W   22359.12755917  .00000254  00000-0  35921-4 0  9990","ARG_OF_PERICENTER":"68.2680","MEAN_ANOMALY":"291.8461","EPHEMERIS_TYPE":"0"}];
